SOYUZ-MS 28             
1 66664U 25275A   25343.50984767  .00014141  00000+0  26026-3 0  9991
2 66664  51.6310 158.4724 0003400 223.8185 136.2534 15.49447168  1940
1998-067XS              
1 66906U 98067XS  25343.50652909  .00033864  00000+0  59212-3 0  9995
2 66906  51.6300 158.4502 0003981 188.2752 171.8172 15.50312686  1110
1998-067XT              
1 66907U 98067XT  25343.50529068  .00076342  00000+0  12921-2 0  9998
2 66907  51.6307 158.4423 0004803 208.5081 151.5646 15.50864429  1113
1998-067XU              
1 66908U 98067XU  25343.76282734  .00079389  00000+0  13388-2 0  9995
2 66908  51.6303 157.1615 0005009 208.2103 151.8616 15.50948128  1153
SILVERSAT               
1 66909U 98067XV  25343.82707981  .00091886  00000+0  15400-2 0  9992
2 66909  51.6304 156.8402 0004877 210.6195 149.4510 15.51056405  1161
1998-067XW              
1 66910U 98067XW  25343.76145936  .00077029  00000+0  12863-2 0  9996
2 66910  51.6303 157.1524 0005725 193.6821 166.4014 15.51233501  1151
1998-067XX              
1 66911U 98067XX  25343.11695649  .00085582  00000+0  14246-2 0  9997
2 66911  51.6296 160.3494 0005703 191.2268 168.8595 15.51276485  1046
1998-067XY              
1 66912U 98067XY  25342.79680750  .00056065  00000+0  96272-3 0  9992
2 66912  51.6301 161.9610 0005043 202.8278 157.2488 15.50590071   993
